{
  "type": "FeatureCollection",
  "features": [
    {
      "type": "Feature",
      "properties": {
        "norad_id": 60182,
        "name": "ALOS-4 (DAICHI-4)",
        "group": "resource",
        "lat": -74.51805960443103,
        "lon": -114.98840510947934,
        "alt_km": 639.2000391606371,
        "timestamp": "2025-12-26T12:57:38.924944+00:00",
        "meta_object_name": "ALOS-4 (DAICHI-4)",
        "meta_object_id": "2024-123A",
        "meta_epoch": "2025-12-26T06:56:05.330976",
        "meta_mean_motion": 14.79475251,
        "meta_eccentricity": 0.00014051,
        "meta_inclination": 97.9216,
        "meta_ra_of_asc_node": 94.9427,
        "meta_arg_of_pericenter": 101.0532,
        "meta_mean_anomaly": 259.0837,
        "meta_ephemeris_type": 0,
        "meta_classification_type": "U",
        "meta_norad_cat_id": 60182,
        "meta_element_set_no": 999,
        "meta_rev_at_epoch": 8031,
        "meta_bstar": 0.00030678424,
        "meta_mean_motion_dot": 2.241e-05,
        "meta_mean_motion_ddot": 0,
        "tle_line1": "1 60182U 24123A   25360.28895059  .00002241  00000+0  30678-3 0  9996",
        "tle_line2": "2 60182  97.9216  94.9427 0001405 101.0532 259.0837 14.79475251 80311"
      },
      "geometry": {
        "type": "Point",
        "coordinates": [
          -114.98840510947934,
          -74.51805960443103
        ]
      }
    },
    {
      "type": "Feature",
      "properties": {
        "norad_id": 60452,
        "name": "LEGION 3",
        "group": "resource",
        "lat": 36.548639362037996,
        "lon": -75.97318005369472,
        "alt_km": 521.5871974993042,
        "timestamp": "2025-12-26T12:57:38.924954+00:00",
        "meta_object_name": "LEGION 3",
        "meta_object_id": "2024-146A",
        "meta_epoch": "2025-12-26T01:38:14.897472",
        "meta_mean_motion": 15.15894786,
        "meta_eccentricity": 0.00157668,
        "meta_inclination": 45.0002,
        "meta_ra_of_asc_node": 238.6742,
        "meta_arg_of_pericenter": 269.5324,
        "meta_mean_anomaly": 90.3748,
        "meta_ephemeris_type": 0,
        "meta_classification_type": "U",
        "meta_norad_cat_id": 60452,
        "meta_element_set_no": 999,
        "meta_rev_at_epoch": 7575,
        "meta_bstar": 0.00028452134,
        "meta_mean_motion_dot": 5.294e-05,
        "meta_mean_motion_ddot": 0,
        "tle_line1": "1 60452U 24146A   25360.06822798  .00005294  00000+0  28452-3 0  9995",
        "tle_line2": "2 60452  45.0002 238.6742 0015766 269.5324  90.3748 15.15894786 75757"
      },
      "geometry": {
        "type": "Point",
        "coordinates": [
          -75.97318005369472,
          36.548639362037996
        ]
      }
    },
    {
      "type": "Feature",
      "properties": {
        "norad_id": 60453,
        "name": "LEGION 4",
        "group": "resource",
        "lat": 36.48347116231208,
        "lon": 15.581647596670456,
        "alt_km": 507.65310936176866,
        "timestamp": "2025-12-26T12:57:38.924965+00:00",
        "meta_object_name": "LEGION 4",
        "meta_object_id": "2024-146B",
        "meta_epoch": "2025-12-26T06:23:02.730048",
        "meta_mean_motion": 15.15971487,
        "meta_eccentricity": 0.0007942,
        "meta_inclination": 45.0398,
        "meta_ra_of_asc_node": 329.4045,
        "meta_arg_of_pericenter": 26.8443,
        "meta_mean_anomaly": 333.2846,
        "meta_ephemeris_type": 0,
        "meta_classification_type": "U",
        "meta_norad_cat_id": 60453,
        "meta_element_set_no": 999,
        "meta_rev_at_epoch": 7463,
        "meta_bstar": 0.00033441281,
        "meta_mean_motion_dot": 6.271e-05,
        "meta_mean_motion_ddot": 0,
        "tle_line1": "1 60453U 24146B   25360.26600382  .00006271  00000+0  33441-3 0  9991",
        "tle_line2": "2 60453  45.0398 329.4045 0007942  26.8443 333.2846 15.15971487 74632"
      },
      "geometry": {
        "type": "Point",
        "coordinates": [
          15.581647596670456,
          36.48347116231208
        ]
      }
    },
    {
      "type": "Feature",
      "properties": {
        "norad_id": 60989,
        "name": "SENTINEL-2C",
        "group": "resource",
        "lat": 51.61413948577872,
        "lon": -96.20828723753168,
        "alt_km": 783.2872182384754,
        "timestamp": "2025-12-26T12:57:38.924975+00:00",
        "meta_object_name": "SENTINEL-2C",
        "meta_object_id": "2024-157A",
        "meta_epoch": "2025-12-26T03:58:31.725408",
        "meta_mean_motion": 14.30818046,
        "meta_eccentricity": 0.00013866,
        "meta_inclination": 98.5666,
        "meta_ra_of_asc_node": 72.4538,
        "meta_arg_of_pericenter": 102.8528,
        "meta_mean_anomaly": 257.2809,
        "meta_ephemeris_type": 0,
        "meta_classification_type": "U",
        "meta_norad_cat_id": 60989,
        "meta_element_set_no": 999,
        "meta_rev_at_epoch": 6824,
        "meta_bstar": 0.0001005445,
        "meta_mean_motion_dot": 2.2e-06,
        "meta_mean_motion_ddot": 0,
        "tle_line1": "1 60989U 24157A   25360.16564497  .00000220  00000+0  10054-3 0  9995",
        "tle_line2": "2 60989  98.5666  72.4538 0001386 102.8528 257.2809 14.30818046 68245"
      },
      "geometry": {
        "type": "Point",
        "coordinates": [
          -96.20828723753168,
          51.61413948577872
        ]
      }
    },
    {
      "type": "Feature",
      "properties": {
        "norad_id": 61735,
        "name": "IONOSFERA-M 1",
        "group": "resource",
        "lat": -7.989389883915627,
        "lon": -128.48137236821572,
        "alt_km": 819.8721116414581,
        "timestamp": "2025-12-26T12:57:38.924988+00:00",
        "meta_object_name": "IONOSFERA-M 1",
        "meta_object_id": "2024-199A",
        "meta_epoch": "2025-12-26T06:14:50.090208",
        "meta_mean_motion": 14.2271696,
        "meta_eccentricity": 2.906e-05,
        "meta_inclination": 98.7395,
        "meta_ra_of_asc_node": 230.0041,
        "meta_arg_of_pericenter": 4.0801,
        "meta_mean_anomaly": 356.038,
        "meta_ephemeris_type": 0,
        "meta_classification_type": "U",
        "meta_norad_cat_id": 61735,
        "meta_element_set_no": 999,
        "meta_rev_at_epoch": 10311,
        "meta_bstar": 4.31104e-05,
        "meta_mean_motion_dot": 5.2e-07,
        "meta_mean_motion_ddot": 0,
        "tle_line1": "1 61735U 24199A   25360.26030197  .00000052  00000+0  43110-4 0  9990",
        "tle_line2": "2 61735  98.7395 230.0041 0000290   4.0801 356.0380 14.22716960103118"
      },
      "geometry": {
        "type": "Point",
        "coordinates": [
          -128.48137236821572,
          -7.989389883915627
        ]
      }
    },
    {
      "type": "Feature",
      "properties": {
        "norad_id": 61736,
        "name": "IONOSFERA-M 2",
        "group": "resource",
        "lat": 4.997422723057608,
        "lon": 50.964688824549064,
        "alt_km": 818.2380200171765,
        "timestamp": "2025-12-26T12:57:38.924998+00:00",
        "meta_object_name": "IONOSFERA-M 2",
        "meta_object_id": "2024-199B",
        "meta_epoch": "2025-12-26T07:04:41.865600",
        "meta_mean_motion": 14.22719163,
        "meta_eccentricity": 0.00018718,
        "meta_inclination": 98.7394,
        "meta_ra_of_asc_node": 229.9509,
        "meta_arg_of_pericenter": 93.0182,
        "meta_mean_anomaly": 267.1211,
        "meta_ephemeris_type": 0,
        "meta_classification_type": "U",
        "meta_norad_cat_id": 61736,
        "meta_element_set_no": 999,
        "meta_rev_at_epoch": 10624,
        "meta_bstar": 4.8915171e-05,
        "meta_mean_motion_dot": 6.5e-07,
        "meta_mean_motion_ddot": 0,
        "tle_line1": "1 61736U 24199B   25360.29492900  .00000065  00000+0  48915-4 0  9990",
        "tle_line2": "2 61736  98.7394 229.9509 0001871  93.0182 267.1211 14.22719163106240"
      },
      "geometry": {
        "type": "Point",
        "coordinates": [
          50.964688824549064,
          4.997422723057608
        ]
      }
    },
    {
      "type": "Feature",
      "properties": {
        "norad_id": 63772,
        "name": "BIOMASS",
        "group": "resource",
        "lat": 68.37407082252527,
        "lon": 164.3796217145181,
        "alt_km": 661.552775206741,
        "timestamp": "2025-12-26T12:57:38.925008+00:00",
        "meta_object_name": "BIOMASS",
        "meta_object_id": "2025-090A",
        "meta_epoch": "2025-12-26T06:05:53.376864",
        "meta_mean_motion": 14.67541296,
        "meta_eccentricity": 0.0001056,
        "meta_inclination": 98.0696,
        "meta_ra_of_asc_node": 185.0668,
        "meta_arg_of_pericenter": 85.1295,
        "meta_mean_anomaly": 275.003,
        "meta_ephemeris_type": 0,
        "meta_classification_type": "U",
        "meta_norad_cat_id": 63772,
        "meta_element_set_no": 999,
        "meta_rev_at_epoch": 3532,
        "meta_bstar": 0.00024829463,
        "meta_mean_motion_dot": 1.36e-05,
        "meta_mean_motion_ddot": 0,
        "tle_line1": "1 63772U 25090A   25360.25409001  .00001360  00000+0  24829-3 0  9995",
        "tle_line2": "2 63772  98.0696 185.0668 0001056  85.1295 275.0030 14.67541296 35326"
      },
      "geometry": {
        "type": "Point",
        "coordinates": [
          164.3796217145181,
          68.37407082252527
        ]
      }
    }
  ]
}